NORAD_CAT_ID,OBJECT_NAME,OBJECT_TYPE,EPOCH,MEAN_MOTION,ECCENTRICITY,INCLINATION,RA_OF_ASC_NODE,ARG_OF_PERICENTER,MEAN_ANOMALY,BSTAR,MEAN_MOTION_DOT,MEAN_MOTION_DDOT,TLE_LINE0,TLE_LINE1,TLE_LINE2,SEMIMAJOR_AXIS,PERIOD,APOGEE,PERIGEE,DECAYED
56791.0,STARLINK-5977,PAYLOAD,2023-12-17 02:37:15,14.99144562,0.000225,70.0003,235.7858,246.7142,113.3781,1.3568e-05,7.2e-07,0.0,0 STARLINK-5977,1 56791U 23078AA  23351.10920552  .00000072  00000-0  13568-4 0  9992,2 56791  70.0003 235.7858 0002250 246.7142 113.3781 14.99144562 30814,6947.675,96.055,571.103,567.977,0.0
56791.0,STARLINK-5977,PAYLOAD,2023-12-17 20:14:09,14.99138903,0.0002243,70.0001,233.9329,248.651,111.441,6.6335e-05,7.15e-06,0.0,0 STARLINK-5977,1 56791U 23078AA  23351.84317008  .00000715  00000-0  66335-4 0  9993,2 56791  70.0001 233.9329 0002243 248.6510 111.4410 14.99138903 31188,6947.693,96.055,571.116,567.999,0.0
56791.0,STARLINK-5977,PAYLOAD,2023-12-17 21:50:14,14.99140743,0.0002435,69.9998,233.7653,252.9902,107.0991,0.00011097,1.259e-05,0.0,0 STARLINK-5977,1 56791U 23078AA  23351.90989182  .00001259  00000-0  11097-3 0  9996,2 56791  69.9998 233.7653 0002435 252.9902 107.0991 14.99140743 30936,6947.687,96.055,571.244,567.86,0.0
56791.0,STARLINK-5977,PAYLOAD,2023-12-18 02:38:29,14.99141991,0.0002483,69.9996,233.2601,255.4945,104.5939,0.00010535,1.19e-05,0.0,0 STARLINK-5977,1 56791U 23078AA  23352.11006271  .00001190  00000-0  10535-3 0  9999,2 56791  69.9996 233.2601 0002483 255.4945 104.5939 14.99141991 30963,6947.683,96.055,571.273,567.823,0.0
56791.0,STARLINK-5977,PAYLOAD,2023-12-18 20:15:24,14.99134996,0.0002357,70.0016,231.411,227.864,132.2319,-8.7668e-05,-1.161e-05,0.0,0 STARLINK-5977,1 56791U 23078AA  23352.84403738 -.00001161  00000-0 -87668-4 0  9990,2 56791  70.0016 231.4110 0002357 227.8640 132.2319 14.99134996 31338,6947.705,96.055,571.207,567.932,0.0
56791.0,STARLINK-5977,PAYLOAD,2023-12-18 21:51:30,14.99133052,0.0002412,69.9995,231.2382,254.09,105.9994,-0.00014219,-1.825e-05,0.0,0 STARLINK-5977,1 56791U 23078AA  23352.91076445 -.00001825  00000-0 -14219-3 0  9997,2 56791  69.9995 231.2382 0002412 254.0900 105.9994 14.99133052 31083,6947.711,96.056,571.251,567.9,0.0
56791.0,STARLINK-5977,PAYLOAD,2023-12-19 13:52:18,14.99137841,0.0002925,70.0002,229.5549,266.3178,93.7647,2.4076e-06,-6.4e-07,0.0,0 STARLINK-5977,1 56791U 23078AA  23353.57799727 -.00000064  00000-0  24076-5 0  9992,2 56791  70.0002 229.5549 0002925 266.3178  93.7647 14.99137841 31182,6947.696,96.055,571.593,567.529,0.0
56791.0,STARLINK-5977,PAYLOAD,2023-12-19 20:16:38,14.99145487,0.0002438,69.9998,228.8808,253.0792,107.01,2.553e-05,2.17e-06,0.0,0 STARLINK-5977,1 56791U 23078AA  23353.84488809  .00000217  00000-0  25530-4 0  9992,2 56791  69.9998 228.8808 0002438 253.0792 107.0100 14.99145487 31488,6947.672,96.055,571.231,567.843,0.0
56791.0,STARLINK-5977,PAYLOAD,2023-12-20 01:04:53,14.99148457,0.0002449,69.9997,228.3756,266.4354,93.6525,-9.6136e-05,-1.265e-05,0.0,0 STARLINK-5977,1 56791U 23078AA  23354.04506122 -.00001265  00000-0 -96136-4 0  9990,2 56791  69.9997 228.3756 0002449 266.4354  93.6525 14.99148457 31254,6947.663,96.055,571.23,567.827,0.0
56791.0,STARLINK-5977,PAYLOAD,2023-12-20 20:17:52,14.99137491,0.0002524,69.9992,226.3537,249.1869,110.902,0.00013738,1.581e-05,0.0,0 STARLINK-5977,1 56791U 23078AA  23354.84574858  .00001581  00000-0  13738-3 0  9994,2 56791  69.9992 226.3537 0002524 249.1869 110.9020 14.99137491 31638,6947.697,96.055,571.316,567.808,0.0
56791.0,STARLINK-5977,PAYLOAD,2023-12-20 21:53:57,14.99133457,0.0002466,69.9995,226.1861,245.5541,114.5361,0.00010005,1.125e-05,0.0,0 STARLINK-5977,1 56791U 23078AA  23354.91247613  .00001125  00000-0  10005-3 0  9996,2 56791  69.9995 226.1861 0002466 245.5541 114.5361 14.99133457 31389,6947.709,96.055,571.288,567.861,0.0
56791.0,STARLINK-5977,PAYLOAD,2023-12-21 01:06:07,14.99138209,0.0002399,69.999,225.8479,273.3996,86.6889,0.00013023,1.493e-05,0.0,0 STARLINK-5977,1 56791U 23078AA  23355.04592183  .00001493  00000-0  13023-3 0  9997,2 56791  69.9990 225.8479 0002399 273.3996  86.6889 14.99138209 31400,6947.695,96.055,571.226,567.893,0.0
56791.0,STARLINK-5977,PAYLOAD,2023-12-21 21:55:12,14.99127761,0.0002501,69.9994,223.6582,254.4822,105.6061,5.9939e-05,6.37e-06,0.0,0 STARLINK-5977,1 56791U 23078AA  23355.91334166  .00000637  00000-0  59939-4 0  9994,2 56791  69.9994 223.6582 0002501 254.4822 105.6061 14.99127761 31537,6947.727,96.056,571.33,567.854,0.0
56791.0,STARLINK-5977,PAYLOAD,2023-12-22 01:07:22,14.99118783,0.0002427,69.9995,223.3209,254.6966,105.3925,0.00022887,2.695e-05,0.0,0 STARLINK-5977,1 56791U 23078AA  23356.04679258  .00002695  00000-0  22887-3 0  9990,2 56791  69.9995 223.3209 0002427 254.6966 105.3925 14.99118783 31810,6947.755,96.056,571.306,567.933,0.0
56791.0,STARLINK-5977,PAYLOAD,2023-12-22 20:20:21,14.99139697,0.0002351,69.9994,221.2997,256.86,103.2298,-8.0454e-06,-1.92e-06,0.0,0 STARLINK-5977,1 56791U 23078AA  23356.84747184 -.00000192  00000-0 -80454-5 0  9990,2 56791  69.9994 221.2997 0002351 256.8600 103.2298 14.99139697 31935,6947.69,96.055,571.188,567.922,0.0
56791.0,STARLINK-5977,PAYLOAD,2023-12-22 21:56:26,14.99139141,0.0002364,69.9993,221.1313,257.4621,102.6274,-1.468e-05,-2.72e-06,0.0,0 STARLINK-5977,1 56791U 23078AA  23356.91419638 -.00000272  00000-0 -14680-4 0  9994,2 56791  69.9993 221.1313 0002364 257.4621 102.6274 14.99139141 31682,6947.692,96.055,571.199,567.914,0.0
56791.0,STARLINK-5977,PAYLOAD,2023-12-23 01:08:36,14.99139749,0.0002361,69.9994,220.7946,257.5409,102.5486,-7.3625e-06,-1.83e-06,0.0,0 STARLINK-5977,1 56791U 23078AA  23357.04764378 -.00000183  00000-0 -73625-5 0  9999,2 56791  69.9994 220.7946 0002361 257.5409 102.5486 14.99139749 31703,6947.69,96.055,571.195,567.915,0.0
56791.0,STARLINK-5977,PAYLOAD,2023-12-23 21:57:40,14.99137532,0.000246,69.9991,218.6048,257.9284,102.16,3.5675e-05,3.41e-06,0.0,0 STARLINK-5977,1 56791U 23078AA  23357.91505621  .00000341  00000-0  35675-4 0  9995,2 56791  69.9991 218.6048 0002460 257.9284 102.1600 14.99137532 31830,6947.697,96.055,571.271,567.853,0.0
56791.0,STARLINK-5977,PAYLOAD,2023-12-24 01:09:50,14.99137918,0.0002463,69.9991,218.2676,259.735,100.3532,3.8217e-05,3.72e-06,0.0,0 STARLINK-5977,1 56791U 23078AA  23358.04850403  .00000372  00000-0  38217-4 0  9990,2 56791  69.9991 218.2676 0002463 259.7350 100.3532 14.99137918 32114,6947.696,96.055,571.272,567.849,0.0
56791.0,STARLINK-5977,PAYLOAD,2023-12-24 21:58:55,14.99140663,0.0002413,69.9991,216.0776,260.7887,99.3,1.7661e-05,1.22e-06,0.0,0 STARLINK-5977,1 56791U 23078AA  23358.91591455  .00000122  00000-0  17661-4 0  9998,2 56791  69.9991 216.0776 0002413 260.7887  99.3000 14.99140663 31985,6947.687,96.055,571.229,567.876,0.0
56791.0,STARLINK-5977,PAYLOAD,2023-12-25 01:11:04,14.99141738,0.0002404,69.9992,215.7409,261.2567,98.832,2.8062e-05,2.48e-06,0.0,0 STARLINK-5977,1 56791U 23078AA  23359.04936136  .00000248  00000-0  28062-4 0  9998,2 56791  69.9992 215.7409 0002404 261.2567  98.8320 14.99141738 32261,6947.684,96.055,571.219,567.879,0.0
56791.0,STARLINK-5977,PAYLOAD,2023-12-25 22:00:09,14.99137562,0.0002416,69.9992,213.5509,259.5941,100.4947,-1.5438e-05,-2.82e-06,0.0,0 STARLINK-5977,1 56791U 23078AA  23359.91677586 -.00000282  00000-0 -15438-4 0  9998,2 56791  69.9992 213.5509 0002416 259.5941 100.4947 14.99137562 32138,6947.697,96.055,571.24,567.883,0.0
56791.0,STARLINK-5977,PAYLOAD,2023-12-26 14:00:58,14.99139967,0.0002414,69.9993,211.8663,261.6662,98.4224,-1.8481e-05,-3.19e-06,0.0,0 STARLINK-5977,1 56791U 23078AA  23360.58401415 -.00000319  00000-0 -18481-4 0  9991,2 56791  69.9993 211.8663 0002414 261.6662  98.4224 14.99139967 32239,6947.689,96.055,571.231,567.877,0.0
56791.0,STARLINK-5977,PAYLOAD,2023-12-26 18:49:13,14.99139723,0.0002434,69.9992,211.3608,261.3543,98.7341,-2.1115e-05,-3.51e-06,0.0,0 STARLINK-5977,1 56791U 23078AA  23360.78418610 -.00000351  00000-0 -21115-4 0  9992,2 56791  69.9992 211.3608 0002434 261.3543  98.7341 14.99139723 32524,6947.69,96.055,571.246,567.864,0.0
56791.0,STARLINK-5977,PAYLOAD,2023-12-26 22:01:23,14.99139241,0.0002438,69.9992,211.0239,261.4001,98.6882,-2.5375e-05,-4.03e-06,0.0,0 STARLINK-5977,1 56791U 23078AA  23360.91763440 -.00000403  00000-0 -25375-4 0  9991,2 56791  69.9992 211.0239 0002438 261.4001  98.6882 14.99139241 32282,6947.692,96.055,571.25,567.863,0.0
56791.0,STARLINK-5977,PAYLOAD,2023-12-26 23:37:28,14.99140065,0.0002554,69.9988,210.8551,266.7287,93.358,-2.6122e-05,-4.12e-06,0.0,0 STARLINK-5977,1 56791U 23078AA  23360.98435796 -.00000412  00000-0 -26122-4 0  9999,2 56791  69.9988 210.8551 0002554 266.7287  93.3580 14.99140065 32298,6947.689,96.055,571.328,567.78,0.0
56791.0,STARLINK-5977,PAYLOAD,2023-12-27 18:50:28,14.99138133,0.0002689,69.9987,208.8335,269.182,90.9032,-1.3107e-05,-2.53e-06,0.0,0 STARLINK-5977,1 56791U 23078AA  23361.78504660 -.00000253  00000-0 -13107-4 0  9997,2 56791  69.9987 208.8335 0002689 269.1820  90.9032 14.99138133 32673,6947.695,96.055,571.428,567.692,0.0
56791.0,STARLINK-5977,PAYLOAD,2023-12-27 22:02:37,14.99137921,0.0002588,69.9987,208.4962,266.2841,93.8022,-5.4756e-06,-1.6e-06,0.0,0 STARLINK-5977,1 56791U 23078AA  23361.91849443 -.00000160  00000-0 -54756-5 0  9996,2 56791  69.9987 208.4962 0002588 266.2841  93.8022 14.99137921 32433,6947.696,96.055,571.359,567.763,0.0
56791.0,STARLINK-5977,PAYLOAD,2023-12-28 14:03:27,14.99139768,0.0002646,69.9984,206.8118,267.4421,92.6436,7.7011e-06,0.0,0.0,0 STARLINK-5977,1 56791U 23078AA  23362.58573281  .00000000  00000-0  77011-5 0  9994,2 56791  69.9984 206.8118 0002646 267.4421  92.6436 14.99139768 32535,6947.69,96.055,571.393,567.717,0.0
56791.0,STARLINK-5977,PAYLOAD,2023-12-28 18:51:42,14.99140038,0.0002645,69.9985,206.3065,267.438,92.6477,1.1213e-05,4.3e-07,0.0,0 STARLINK-5977,1 56791U 23078AA  23362.78590431  .00000043  00000-0  11213-4 0  9990,2 56791  69.9985 206.3065 0002645 267.4380  92.6477 14.99140038 32824,6947.689,96.055,571.392,567.716,0.0
